[{"OBJECT_NAME":"STARLINK-2130","OBJECT_ID":"2021-005BJ","EPOCH":"2026-03-09T22:00:01.999584","MEAN_MOTION":15.13281919,"ECCENTRICITY":9.04e-5,"INCLINATION":53.0824,"RA_OF_ASC_NODE":60.4652,"ARG_OF_PERICENTER":98.9543,"MEAN_ANOMALY":231.3183,"EPHEMERIS_TYPE":0,"CLASSIFICATION_TYPE":"U","NORAD_CAT_ID":47405,"ELEMENT_SET_NO":999,"REV_AT_EPOCH":577,"BSTAR":0.0047989854,"MEAN_MOTION_DOT":0.0008714,"MEAN_MOTION_DDOT":0},{"OBJECT_NAME":"PIESAT D","OBJECT_ID":"2023-047D","EPOCH":"2026-03-09T13:45:37.058976","MEAN_MOTION":15.14301886,"ECCENTRICITY":0.0001784,"INCLINATION":97.5049,"RA_OF_ASC_NODE":257.1462,"ARG_OF_PERICENTER":95.5605,"MEAN_ANOMALY":264.5831,"EPHEMERIS_TYPE":0,"CLASSIFICATION_TYPE":"U","NORAD_CAT_ID":56156,"ELEMENT_SET_NO":999,"REV_AT_EPOCH":16272,"BSTAR":0.00028476,"MEAN_MOTION_DOT":5.148e-5,"MEAN_MOTION_DDOT":0}]
